[{"OBJECT_NAME":"STARLINK-30316","OBJECT_ID":"2023-124L","EPOCH":"2026-03-09T16:36:06.812064","MEAN_MOTION":15.30184915,"ECCENTRICITY":0.00011766,"INCLINATION":53.161,"RA_OF_ASC_NODE":207.0679,"ARG_OF_PERICENTER":90.1891,"MEAN_ANOMALY":269.9245,"EPHEMERIS_TYPE":0,"CLASSIFICATION_TYPE":"U","NORAD_CAT_ID":57673,"ELEMENT_SET_NO":999,"REV_AT_EPOCH":14356,"BSTAR":-1.2465199e-5,"MEAN_MOTION_DOT":-7.28e-6,"MEAN_MOTION_DDOT":0},{"OBJECT_NAME":"USA 142 DEB","OBJECT_ID":"1999-017E","EPOCH":"2026-03-09T01:59:09.811680","MEAN_MOTION":14.46333103,"ECCENTRICITY":0.07685887,"INCLINATION":28.8715,"RA_OF_ASC_NODE":82.1628,"ARG_OF_PERICENTER":170.7955,"MEAN_ANOMALY":190.7642,"EPHEMERIS_TYPE":0,"CLASSIFICATION_TYPE":"U","NORAD_CAT_ID":25675,"ELEMENT_SET_NO":999,"REV_AT_EPOCH":12979,"BSTAR":0.011133012,"MEAN_MOTION_DOT":0.05645123,"MEAN_MOTION_DDOT":-4.856194e-6}]
